#aV2024 11 16  0  0  0.00000000     288 DD+AD WGS84 FIT  NGA
## 2340 518400.00000000   300.00000000 60630 0.0000000000000
+   31     2  3  4  5  6  7  8  9 10 11 12 13 14 15 16 17 18
+         19 20 21 22 23 24 25 26 27 28 29 30 31 32  0  0  0
+          0  0  0  0  0  0  0  0  0  0  0  0  0  0  0  0  0
+          0  0  0  0  0  0  0  0  0  0  0  0  0  0  0  0  0
+          0  0  0  0  0  0  0  0  0  0  0  0  0  0  0  0  0
++         2  2  2  2  2  2  2  2  2  2  2  2  2  2  2  2  2
++         2  2  2  2  2  2  2  2  2  2  2  2  2  2  0  0  0
++         0  0  0  0  0  0  0  0  0  0  0  0  0  0  0  0  0
++         0  0  0  0  0  0  0  0  0  0  0  0  0  0  0  0  0
++         0  0  0  0  0  0  0  0  0  0  0  0  0  0  0  0  0
%c cc cc ccc ccc cccc cccc cccc cccc ccccc ccccc ccccc ccccc
%c cc cc ccc ccc cccc cccc cccc cccc ccccc ccccc ccccc ccccc
%f  0.0000000  0.000000000  0.00000000000  0.000000000000000
%f  0.0000000  0.000000000  0.00000000000  0.000000000000000
%i    0    0    0    0      0      0      0      0         0
%i    0    0    0    0      0      0      0      0         0
/*      NGA, ST. LOUIS,MO.                                  
/*   EPHEMERIS COMPUTED FROM 2 DAYS OF DATA                 
/*   EPOCHA v9 SMOOTHER                                     
/*   G2296 IERS2010 SATIGS SATAPC                           
*  2024 11 16 11 45  0.00000000
P  2 -14400.175077  21597.538041   5093.424370   -313.327935                    
V  2     65.841551  -6566.652843  31236.745537      0.085640                    
P  3 -13561.440374  12458.337453 -19262.150073    601.302083                    
V  3 -24055.638074  -1460.809522  16235.171296      0.102710                    
P  4  -4728.312155  18535.431699 -18347.653696    480.402333                    
V  4 -12050.484087 -20079.263890 -17311.750890      0.064592                    
P  5  25095.103410  -5444.774709   6738.827372   -193.166020                    
V  5   8836.933272   1954.973316 -30461.374405     -0.011716                    
P  6  11519.760080   8992.417999 -22101.613195   -118.857007                    
V  6 -14967.459924  23857.722511   2007.719574     -0.292755                    
P  7  -3629.238617  23292.753517  12303.176017    -19.835974                    
V  7 -10074.044710  11449.745809 -26220.776183      0.022130                    
P  8 -13081.312137   8088.901167  21530.494733    414.996821                    
V  8 -14604.507607 -23499.707951    394.316219      0.101681                    
P  9   4187.914154  23380.790136 -11907.788026    446.138098                    
V  9  -9742.549642 -11664.189501 -26600.775764      0.170509                    
P 10 -19128.435363 -10586.260264  15543.640442   -197.923278                    
V 10  19162.122518   -821.220029  23030.023945     -0.144863                    
P 11  18445.511136  -4817.855998 -18426.364257   -750.286420                    
V 11 -11716.791146  20409.991705 -17090.205965     -0.015640                    
P 12  18026.226358 -10293.604922 -16827.795655   -552.428935                    
V 12  20632.917833   3433.751739  20391.495068     -0.025083                    
P 13  15931.809004   1486.400292  21009.318229    686.249470                    
V 13   9205.728394  25535.269908  -8460.701900      0.015744                    
P 14  15517.875820  13057.652959  17314.835375    540.932740                    
V 14 -21906.186186   1067.012096  18646.599671      0.080641                    
P 15  11599.578153 -10275.104253  21047.432076    228.435344                    
V 15  17545.330754  21891.492037   1141.619967      0.045282                    
P 16 -26645.658859   -971.339913   2410.883439   -126.991756                    
V 16  -3184.768962  -2764.716467 -31278.245406      0.097713                    
P 17  13273.169421  22622.259738  -3030.073956    556.549541                    
V 17   -638.130887   5173.797100  31692.898156     -0.146113                    
P 18   2949.124195 -22437.327336  13747.620184   -660.381839                    
V 18  10930.934678 -13774.987563 -25099.832666     -0.003895                    
P 19  16802.515009  16444.927806 -12905.932764    563.389625                    
V 19   4648.942422  15406.124150  25548.303467      0.044221                    
P 20  25944.194836   -635.475175  -5198.165371    368.692685                    
V 20  -6142.054937   4077.634670 -30826.328887     -0.003345                    
P 21 -16539.304405  17201.055155  10799.054222     97.328556                    
V 21   2937.055793 -13575.872316  28167.558502     -0.009257                    
P 22  21305.718824  10563.655317  11897.393605    -79.808156                    
V 22 -14791.828253    981.114689  26804.479815     -0.028801                    
P 23  -5199.615412 -14445.549590  21737.799259    364.380846                    
V 23  27413.234946   -656.731133   5909.055264      0.079252                    
P 24  14578.000401 -21026.951718   5826.009378   -479.929505                    
V 24    153.377187   9010.551807  30195.289131      0.022061                    
P 25   3503.298781 -15486.300870 -21618.379462    498.964657                    
V 25  26699.991973    350.661814   4406.567301     -0.002878                    
P 26 -24633.577612  -5134.646334  -9260.221088     24.289645                    
V 26  11200.816644  -3870.424434 -27794.003366     -0.130482                    
P 27 -17788.252910  -4050.599363  19152.384066    -34.699567                    
V 27 -11318.057331 -22125.861484 -14538.023903      0.000922                    
P 28 -10959.528379 -11171.644527 -21475.259784   -480.620772                    
V 28  13609.187796 -23592.068760   5334.401060     -0.117458                    
P 29  -1462.106838 -23390.382699 -12421.715062   -563.376694                    
V 29   8624.402930  13346.399057 -26354.132712      0.028525                    
P 30   5954.265749  17554.870742  19076.330862   -280.802999                    
V 30 -13796.113034  19824.305208 -14314.401603      0.078149                    
P 31 -17224.616740     52.291174 -20551.004877   -221.666014                    
V 31  12837.668643 -22028.337033 -10579.622926      0.006647                    
P 32 -16187.278327 -20378.945013  -5606.951443   -572.955829                    
V 32  -1471.759733  -7639.129974  30603.040039      0.053153                    
EOF
